COSMOS 2251 DEB         
1 38064U 93036BRW 24365.86694703  .00011030  00000+0  26396-2 0  9997
2 38064  74.0247  60.9730 0052507 267.1994  92.3157 14.52787614668214
COSMOS 2251 DEB         
1 38067U 93036BRZ 25017.20747816  .00002634  00000+0  54204-3 0  9997
2 38067  74.0179 184.4438 0072192  53.7330 119.6300 14.59437097750852
COSMOS 2251 DEB         
1 38068U 93036BSA 25018.87641740  .00001315  00000+0  46664-3 0  9997
2 38068  74.0202 190.3374 0026198 357.9663   2.1379 14.35275573619419
COSMOS 2251 DEB         
1 38190U 93036BSE 25018.06854106  .00068457  00000+0  64284-2 0  9993
2 38190  74.0216 306.8150 0003729 121.8389 238.3158 14.93571213  9688
COSMOS 2251 DEB         
1 38197U 93036BSM 25019.00022459  .00019008  00000+0  34000-2 0  9994
2 38197  73.9438 272.8200 0164384 223.0182 135.8037 14.58366665809519
COSMOS 2251 DEB         
1 38199U 93036BSP 25017.29516146  .00000987  00000+0  79482-3 0  9996
2 38199  73.9547 243.1384 0371721 234.9091 121.6647 13.64019193565281
COSMOS 2251 DEB         
1 38208U 93036BSY 25018.92483358  .00024230  00000+0  40173-2 0  9997
2 38208  74.0131   2.6786 0008906 216.2815 173.6807 14.70118149663199
COSMOS 2251 DEB         
1 38212U 93036BTC 25018.36302615  .00004679  00000+0  64976-3 0  9999
2 38212  74.0546 359.1457 0097324 153.8308 206.7833 14.74917611764648
COSMOS 2251 DEB         
1 38220U 93036BTL 25018.67822983  .00030237  00000+0  45394-2 0  9998
2 38220  74.0243 358.9434 0003458 205.3171 154.7834 14.74413895806251
COSMOS 2251 DEB         
1 38479U 93036BTP 25018.90908219  .00007972  00000+0  27293-2 0  9995
2 38479  74.0143  67.3531 0096581 256.1507 279.5887 14.33762658782257
COSMOS 2251 DEB         
1 38481U 93036BTR 25018.82756496  .00003897  00000+0  24099-2 0  9990
2 38481  73.9314 213.4340 0235544 220.0410 138.3151 13.92828320773942
COSMOS 2251 DEB         
1 38483U 93036BTT 25015.88112595  .00002960  00000+0  11522-2 0  9998
2 38483  74.2600 242.8475 0116532  87.5598 273.8886 14.26482133795309
COSMOS 2251 DEB         
1 38485U 93036BTV 25017.66895570  .00044161  00000+0  36752-2 0  9990
2 38485  74.0021 106.3002 0032891 335.9880  23.9769 14.98031859126222
COSMOS 2251 DEB         
1 38486U 93036BTW 25017.56033513  .00019864  00000+0  39917-2 0  9999
2 38486  73.9412 123.7803 0042604 339.5078  32.6021 14.61007366708386
COSMOS 2251 DEB         
1 38487U 93036BTX 25016.20939747  .00024089  00000+0  21827-2 0  9990
2 38487  73.9914 352.8235 0051021 242.2938 117.3065 14.94274076750764
COSMOS 2251 DEB         
1 39109U 93036BTY 25013.71748934  .00004088  00000+0  70684-3 0  9994
2 39109  74.0442 149.6312 0063458 339.7513  83.6229 14.67389989602831
COSMOS 2251 DEB         
1 39110U 93036BTZ 25017.65661706  .00005658  00000+0  87673-3 0  9994
2 39110  73.9616 343.9734 0101761 293.8284 240.8713 14.69958281664827
COSMOS 2251 DEB         
1 39111U 93036BUA 25011.68523449  .00026797  00000+0  35026-2 0  9994
2 39111  74.0182 357.4883 0005691 176.4731 183.6486 14.80339930 41390
COSMOS 2251 DEB         
1 39546U 93036BUC 25018.86801453  .00017260  00000+0  21371-2 0  9990
2 39546  73.9996  71.2457 0057448 312.7706  46.8645 14.81527357752091
COSMOS 2251 DEB         
1 39547U 93036BUD 25016.84053123  .00029017  00000+0  39129-2 0  9993
2 39547  74.0121 320.2745 0006697 183.6688 208.0417 14.79002795591108
COSMOS 2251 DEB         
1 39553U 93036BUK 25018.68836459  .00002786  00000+0  16333-2 0  9991
2 39553  74.0281 177.4847 0211053  27.0670 334.1280 13.98103785710296
COSMOS 2251 DEB         
1 39554U 93036BUL 25014.98982682  .00014110  00000+0  16414-2 0  9995
2 39554  74.0179 216.1187 0013058  87.3942  62.7620 14.85270421594210
COSMOS 2251 DEB         
1 39583U 93036BUN 25018.10717831  .00013531  00000+0  28064-2 0  9997
2 39583  73.9364 155.1443 0156416 342.1906  17.3806 14.52761551569948
COSMOS 2251 DEB         
1 39585U 93036BUQ 25017.78764783  .00001807  00000+0  39212-3 0  9991
2 39585  74.0395 206.9481 0067448  51.8057 308.9155 14.57470357577266
COSMOS 2251 DEB         
1 39586U 93036BUR 25018.48733352  .00001663  00000+0  74805-3 0  9995
2 39586  74.0093  97.1358 0104254 307.6437  63.5730 14.20272534802188
COSMOS 2251 DEB         
1 39591U 93036BUW 25019.02214444  .00002873  00000+0  90434-3 0  9998
2 39591  74.0216 134.1108 0031052 327.2763 150.1346 14.40575411 25849
COSMOS 2251 DEB         
1 40218U 93036BUX 25010.64633490  .00002128  00000+0  67711-3 0  9996
2 40218  74.0333 151.1019 0017695 319.9090  40.0758 14.40411413570452
COSMOS 2251 DEB         
1 40223U 93036BVC 25018.45616416  .00046910  00000+0  66323-2 0  9992
2 40223  73.9569  27.8478 0032723 279.9570 230.8611 14.76506521544892
COSMOS 2251 DEB         
1 40224U 93036BVD 25019.07228035  .00131513  00000+0  68395-2 0  9993
2 40224  73.9684 138.1102 0042216 147.7225  25.3292 15.14634393661443
COSMOS 2251 DEB         
1 40228U 93036BVH 25017.63516315  .00002141  00000+0  68509-3 0  9990
2 40228  74.0555 148.4769 0024801 295.0301  75.8527 14.40022853541821
COSMOS 2251 DEB         
1 40230U 93036BVK 25016.56325588  .00005222  00000+0  14472-2 0  9996
2 40230  74.0463 124.7180 0019959 268.5025 103.4744 14.46717183716389
COSMOS 2251 DEB         
1 40233U 93036BVN 25018.93965348  .00007948  00000+0  18577-2 0  9993
2 40233  73.9427   8.6201 0048613 160.6474 199.6549 14.54078375543653
COSMOS 2251 DEB         
1 40238U 93036BVT 25017.19354556  .00002333  00000+0  24225-2 0  9998
2 40238  73.9862 209.1984 0556547 244.5349 109.7182 13.23625892496738
COSMOS 2251 DEB         
1 40239U 93036BVU 25016.22149874  .00002358  00000+0  46926-3 0  9997
2 40239  74.0303 187.9633 0087839  23.0313 149.6247 14.60220517592323
COSMOS 2251 DEB         
1 40792U 93036BVV 25013.14873745  .00008778  00000+0  17399-2 0  9993
2 40792  74.0506 328.7871 0019096 166.7478 205.8940 14.62257731582995
COSMOS 2251 DEB         
1 40793U 93036BVW 25014.29601808  .00002537  00000+0  12904-2 0  9994
2 40793  73.9873  27.7600 0222552 256.6758 100.9477 14.04384819635768
COSMOS 2251 DEB         
1 40794U 93036BVX 25015.86643206  .00019598  00000+0  30668-2 0  9999
2 40794  73.9780  60.0922 0028737 275.8011 258.2143 14.72438412570238
COSMOS 2251 DEB         
1 40796U 93036BVZ 25014.93287398  .00009221  00000+0  13032-2 0  9992
2 40796  74.0174  75.5329 0065136 296.9665 236.9317 14.75786659712533
COSMOS 2251 DEB         
1 40797U 93036BWA 25013.41182090  .00012640  00000+0  92859-3 0  9992
2 40797  73.9268  64.1277 0085690  53.6483 318.9003 15.00524826596252
COSMOS 2251 DEB         
1 40799U 93036BWC 25015.81966622  .00006454  00000+0  54766-3 0  9992
2 40799  73.9262  49.9059 0129126   9.3962 350.9589 14.91807848450330
COSMOS 2251 DEB         
1 40802U 93036BWF 25017.86600978  .00008124  00000+0  12090-2 0  9992
2 40802  74.0419  76.1669 0069640 261.9112  97.4156 14.73415663595576
COSMOS 2251 DEB         
1 40803U 93036BWG 25019.06795426  .00002703  00000+0  69091-3 0  9991
2 40803  74.0171 309.2979 0035352 245.6298 114.1171 14.50583236539998
COSMOS 2251 DEB         
1 40808U 93036BWM 25018.35780839  .00012474  00000+0  25720-2 0  9995
2 40808  74.0445  56.0103 0010129 205.6544 166.4906 14.60472840588133
COSMOS 2251 DEB         
1 40810U 93036BWP 25018.60397780  .00006664  00000+0  15264-2 0  9991
2 40810  74.0379 338.1801 0021074 214.0669 145.9143 14.55654719569038
COSMOS 2251 DEB         
1 46271U 93036BWT 25017.58763402  .00002205  00000+0  56733-3 0  9996
2 46271  74.0499 336.7815 0041249 182.4319 177.6648 14.50253869798686
COSMOS 2251 DEB         
1 46430U 93036BWU 25015.40247181  .00009748  00000+0  26254-2 0  9996
2 46430  73.9149 261.5997 0111675 252.0219 106.8740 14.44396232748860
COSMOS 2251 DEB         
1 46432U 93036BWW 25018.42892190  .00001400  00000+0  14515-2 0  9993
2 46432  73.8713 268.3530 0474755  81.3907  87.5087 13.36031772625806
COSMOS 2251 DEB         
1 47045U 93036BWZ 25017.79955248  .00000425  00000+0  14646-3 0  9999
2 47045  74.0581  34.9249 0030725 259.8234 273.9202 14.38640310 30747
COSMOS 2251 DEB         
1 47048U 93036BXC 25007.33903101  .00008258  00000+0  20101-2 0  9996
2 47048  73.9708 238.5426 0148098 145.2543 333.7175 14.46401334678698
COSMOS 2251 DEB         
1 47051U 93036BXF 25017.68106565  .00001698  00000+0  13849-2 0  9990
2 47051  74.1044   0.7034 0348679 191.5034 344.4172 13.65713329554439
COSMOS 2251 DEB         
1 47052U 93036BXG 25018.29851038  .00001121  00000+0  39659-3 0  9990
2 47052  74.0473 221.9905 0059570  17.8324 155.6789 14.34740906570779
COSMOS 2251 DEB         
1 47053U 93036BXH 25018.89738911  .00002597  00000+0  22088-2 0  9996
2 47053  74.0587  64.1794 0386435 309.4749 226.6716 13.58427507640954
COSMOS 2251 DEB         
1 47059U 93036BXP 25016.22968450  .00029649  00000+0  33757-2 0  9992
2 47059  73.9926 187.0109 0026328  70.7239 102.1546 14.85813910689022
COSMOS 2251 DEB         
1 47061U 93036BXR 25017.79640154  .00034750  00000+0  36139-2 0  9992
2 47061  74.0100 146.4225 0035923  92.9759  57.7295 14.89231748594335
COSMOS 2251 DEB         
1 47062U 93036BXS 25017.92182505  .00002976  00000+0  23176-2 0  9991
2 47062  74.0810 259.8477 0325946 101.1285 274.9385 13.70624280510951
COSMOS 2251 DEB         
1 47068U 93036BXY 25014.98418844  .00005685  00000+0  14818-2 0  9991
2 47068  74.0290 108.4161 0021690 282.0789  77.7941 14.49605858569436
COSMOS 2251 DEB         
1 47070U 93036BYA 25016.15744064  .00107667  00000+0  68026-2 0  9994
2 47070  74.0485 333.1245 0008298  63.1810 308.6270 15.08462101591903
COSMOS 2251 DEB         
1 47073U 93036BYD 25015.78085761  .00001281  00000+0  73471-3 0  9993
2 47073  74.0845  57.3027 0162595 176.8963 183.3224 14.03939806557152
COSMOS 2251 DEB         
1 53093U 93036BYP 25018.90397166  .00005038  00000+0  16206-2 0  9990
2 53093  74.0360 187.9986 0021146 351.4397   8.6393 14.39454711130042
